CCSDS_OMM_VERS = 2.0
CREATION_DATE  = 
ORIGINATOR     = 

OBJECT_NAME    = COSMOS 2228
OBJECT_ID      = 1992-094A
CENTER_NAME    = EARTH
REF_FRAME      = TEME
TIME_SYSTEM    = UTC
MEAN_ELEMENT_THEORY = SGP/SGP4

EPOCH          = 2025-12-02T19:05:43.805760
MEAN_MOTION    = 14.96652505
ECCENTRICITY   = .001628
INCLINATION    = 82.5170
RA_OF_ASC_NODE = 330.0500
ARG_OF_PERICENTER = 268.2019
MEAN_ANOMALY   = 91.7338

EPHEMERIS_TYPE = 0
CLASSIFICATION_TYPE = U
NORAD_CAT_ID   = 22286
ELEMENT_SET_NO = 999
REV_AT_EPOCH   = 76156
BSTAR          = .30869E-3
MEAN_MOTION_DOT = .3553E-4
MEAN_MOTION_DDOT = 0

CCSDS_OMM_VERS = 2.0
CREATION_DATE  = 
ORIGINATOR     = 

OBJECT_NAME    = SL-16 R/B
OBJECT_ID      = 1993-016B
CENTER_NAME    = EARTH
REF_FRAME      = TEME
TIME_SYSTEM    = UTC
MEAN_ELEMENT_THEORY = SGP/SGP4

EPOCH          = 2025-12-02T16:03:09.256032
MEAN_MOTION    = 14.15288788
ECCENTRICITY   = .0007854
INCLINATION    = 71.0091
RA_OF_ASC_NODE = 58.9545
ARG_OF_PERICENTER = 116.8214
MEAN_ANOMALY   = 243.3713

EPHEMERIS_TYPE = 0
CLASSIFICATION_TYPE = U
NORAD_CAT_ID   = 22566
ELEMENT_SET_NO = 999
REV_AT_EPOCH   = 68844
BSTAR          = -.62653E-4
MEAN_MOTION_DOT = -.17E-5
MEAN_MOTION_DDOT = 0

CCSDS_OMM_VERS = 2.0
CREATION_DATE  = 
ORIGINATOR     = 

OBJECT_NAME    = COSMOS 2242
OBJECT_ID      = 1993-024A
CENTER_NAME    = EARTH
REF_FRAME      = TEME
TIME_SYSTEM    = UTC
MEAN_ELEMENT_THEORY = SGP/SGP4

EPOCH          = 2025-12-02T19:17:36.426048
MEAN_MOTION    = 14.96039146
ECCENTRICITY   = .0014743
INCLINATION    = 82.5193
RA_OF_ASC_NODE = 359.3421
ARG_OF_PERICENTER = 271.1407
MEAN_ANOMALY   = 88.8126

EPHEMERIS_TYPE = 0
CLASSIFICATION_TYPE = U
NORAD_CAT_ID   = 22626
ELEMENT_SET_NO = 999
REV_AT_EPOCH   = 76590
BSTAR          = .2736E-3
MEAN_MOTION_DOT = .3102E-4
MEAN_MOTION_DDOT = 0

CCSDS_OMM_VERS = 2.0
CREATION_DATE  = 
ORIGINATOR     = 

OBJECT_NAME    = SL-16 R/B
OBJECT_ID      = 1993-059B
CENTER_NAME    = EARTH
REF_FRAME      = TEME
TIME_SYSTEM    = UTC
MEAN_ELEMENT_THEORY = SGP/SGP4

EPOCH          = 2025-12-02T20:24:55.238976
MEAN_MOTION    = 14.17209573
ECCENTRICITY   = .0017367
INCLINATION    = 70.9894
RA_OF_ASC_NODE = 215.3391
ARG_OF_PERICENTER = 350.2013
MEAN_ANOMALY   = 9.8769

EPHEMERIS_TYPE = 0
CLASSIFICATION_TYPE = U
NORAD_CAT_ID   = 22803
ELEMENT_SET_NO = 999
REV_AT_EPOCH   = 66581
BSTAR          = .16117E-3
MEAN_MOTION_DOT = .278E-5
MEAN_MOTION_DDOT = 0

CCSDS_OMM_VERS = 2.0
CREATION_DATE  = 
ORIGINATOR     = 

OBJECT_NAME    = ARIANE 40 R/B
OBJECT_ID      = 1993-061H
CENTER_NAME    = EARTH
REF_FRAME      = TEME
TIME_SYSTEM    = UTC
MEAN_ELEMENT_THEORY = SGP/SGP4

EPOCH          = 2025-12-02T18:31:15.751776
MEAN_MOTION    = 14.32790589
ECCENTRICITY   = .0010318
INCLINATION    = 98.5090
RA_OF_ASC_NODE = 42.4825
ARG_OF_PERICENTER = 206.0440
MEAN_ANOMALY   = 154.0226

EPHEMERIS_TYPE = 0
CLASSIFICATION_TYPE = U
NORAD_CAT_ID   = 22830
ELEMENT_SET_NO = 999
REV_AT_EPOCH   = 68022
BSTAR          = .15016E-3
MEAN_MOTION_DOT = .366E-5
MEAN_MOTION_DDOT = 0

CCSDS_OMM_VERS = 2.0
CREATION_DATE  = 
ORIGINATOR     = 

OBJECT_NAME    = COSMOS 2278
OBJECT_ID      = 1994-023A
CENTER_NAME    = EARTH
REF_FRAME      = TEME
TIME_SYSTEM    = UTC
MEAN_ELEMENT_THEORY = SGP/SGP4

EPOCH          = 2025-12-02T13:31:40.841760
MEAN_MOTION    = 14.14350843
ECCENTRICITY   = .0008899
INCLINATION    = 71.0553
RA_OF_ASC_NODE = 18.3008
ARG_OF_PERICENTER = 194.7694
MEAN_ANOMALY   = 165.3170

EPHEMERIS_TYPE = 0
CLASSIFICATION_TYPE = U
NORAD_CAT_ID   = 23087
ELEMENT_SET_NO = 999
REV_AT_EPOCH   = 63107
BSTAR          = .24291E-4
MEAN_MOTION_DOT = -.1E-7
MEAN_MOTION_DDOT = 0

CCSDS_OMM_VERS = 2.0
CREATION_DATE  = 
ORIGINATOR     = 

OBJECT_NAME    = SL-16 R/B
OBJECT_ID      = 1994-023B
CENTER_NAME    = EARTH
REF_FRAME      = TEME
TIME_SYSTEM    = UTC
MEAN_ELEMENT_THEORY = SGP/SGP4

EPOCH          = 2025-12-02T20:47:51.851040
MEAN_MOTION    = 14.14997371
ECCENTRICITY   = .0001061
INCLINATION    = 71.0001
RA_OF_ASC_NODE = 274.2191
ARG_OF_PERICENTER = 76.0191
MEAN_ANOMALY   = 284.1050

EPHEMERIS_TYPE = 0
CLASSIFICATION_TYPE = U
NORAD_CAT_ID   = 23088
ELEMENT_SET_NO = 999
REV_AT_EPOCH   = 63239
BSTAR          = .21448E-3
MEAN_MOTION_DOT = .368E-5
MEAN_MOTION_DDOT = 0

CCSDS_OMM_VERS = 2.0
CREATION_DATE  = 
ORIGINATOR     = 

OBJECT_NAME    = SL-16 R/B
OBJECT_ID      = 1994-074B
CENTER_NAME    = EARTH
REF_FRAME      = TEME
TIME_SYSTEM    = UTC
MEAN_ELEMENT_THEORY = SGP/SGP4

EPOCH          = 2025-12-02T16:10:25.581216
MEAN_MOTION    = 14.79270816
ECCENTRICITY   = .00068
INCLINATION    = 97.7214
RA_OF_ASC_NODE = 6.3782
ARG_OF_PERICENTER = 165.4430
MEAN_ANOMALY   = 309.1146

EPHEMERIS_TYPE = 0
CLASSIFICATION_TYPE = U
NORAD_CAT_ID   = 23343
ELEMENT_SET_NO = 999
REV_AT_EPOCH   = 67290
BSTAR          = .10161E-3
MEAN_MOTION_DOT = .706E-5
MEAN_MOTION_DDOT = 0

CCSDS_OMM_VERS = 2.0
CREATION_DATE  = 
ORIGINATOR     = 

OBJECT_NAME    = SL-16 R/B
OBJECT_ID      = 1994-077B
CENTER_NAME    = EARTH
REF_FRAME      = TEME
TIME_SYSTEM    = UTC
MEAN_ELEMENT_THEORY = SGP/SGP4

EPOCH          = 2025-12-02T19:33:56.863008
MEAN_MOTION    = 14.15545617
ECCENTRICITY   = .0004575
INCLINATION    = 70.9810
RA_OF_ASC_NODE = 196.2920
ARG_OF_PERICENTER = 291.8715
MEAN_ANOMALY   = 68.1921

EPHEMERIS_TYPE = 0
CLASSIFICATION_TYPE = U
NORAD_CAT_ID   = 23405
ELEMENT_SET_NO = 999
REV_AT_EPOCH   = 60252
BSTAR          = -.72487E-5
MEAN_MOTION_DOT = -.62E-6
MEAN_MOTION_DDOT = 0

CCSDS_OMM_VERS = 2.0
CREATION_DATE  = 
ORIGINATOR     = 

OBJECT_NAME    = ARIANE 40+ R/B
OBJECT_ID      = 1995-021B
CENTER_NAME    = EARTH
REF_FRAME      = TEME
TIME_SYSTEM    = UTC
MEAN_ELEMENT_THEORY = SGP/SGP4

EPOCH          = 2025-12-02T19:23:52.330848
MEAN_MOTION    = 14.39682800
ECCENTRICITY   = .0007756
INCLINATION    = 98.4664
RA_OF_ASC_NODE = 44.5165
ARG_OF_PERICENTER = 75.8729
MEAN_ANOMALY   = 37.5915

EPHEMERIS_TYPE = 0
CLASSIFICATION_TYPE = U
NORAD_CAT_ID   = 23561
ELEMENT_SET_NO = 999
REV_AT_EPOCH   = 60530
BSTAR          = .15906E-3
MEAN_MOTION_DOT = .454E-5
MEAN_MOTION_DDOT = 0

CCSDS_OMM_VERS = 2.0
CREATION_DATE  = 
ORIGINATOR     = 

OBJECT_NAME    = SL-16 R/B
OBJECT_ID      = 1995-058B
CENTER_NAME    = EARTH
REF_FRAME      = TEME
TIME_SYSTEM    = UTC
MEAN_ELEMENT_THEORY = SGP/SGP4

EPOCH          = 2025-12-02T12:50:05.008416
MEAN_MOTION    = 14.15477720
ECCENTRICITY   = .0014885
INCLINATION    = 71.0224
RA_OF_ASC_NODE = 24.2302
ARG_OF_PERICENTER = 268.0461
MEAN_ANOMALY   = 91.8957

EPHEMERIS_TYPE = 0
CLASSIFICATION_TYPE = U
NORAD_CAT_ID   = 23705
ELEMENT_SET_NO = 999
REV_AT_EPOCH   = 55410
BSTAR          = .19776E-3
MEAN_MOTION_DOT = .339E-5
MEAN_MOTION_DDOT = 0

CCSDS_OMM_VERS = 2.0
CREATION_DATE  = 
ORIGINATOR     = 

OBJECT_NAME    = SL-16 R/B
OBJECT_ID      = 1996-051B
CENTER_NAME    = EARTH
REF_FRAME      = TEME
TIME_SYSTEM    = UTC
MEAN_ELEMENT_THEORY = SGP/SGP4

EPOCH          = 2025-12-02T13:45:51.653664
MEAN_MOTION    = 14.12394791
ECCENTRICITY   = .0019136
INCLINATION    = 70.7602
RA_OF_ASC_NODE = 20.8030
ARG_OF_PERICENTER = 273.9251
MEAN_ANOMALY   = 85.9681

EPHEMERIS_TYPE = 0
CLASSIFICATION_TYPE = U
NORAD_CAT_ID   = 24298
ELEMENT_SET_NO = 999
REV_AT_EPOCH   = 50793
BSTAR          = .30704E-4
MEAN_MOTION_DOT = .7E-7
MEAN_MOTION_DDOT = 0

