COSMOS 2228             
1 22286U 92094A   25336.79564590  .00003553  00000+0  30869-3 0  9992
2 22286  82.5170 330.0500 0016280 268.2019  91.7338 14.96652505761560
SL-16 R/B               
1 22566U 93016B   25336.66885713 -.00000170  00000+0 -62653-4 0  9998
2 22566  71.0091  58.9545 0007854 116.8214 243.3713 14.15288788688449
COSMOS 2242             
1 22626U 93024A   25336.80389382  .00003102  00000+0  27360-3 0  9992
2 22626  82.5193 359.3421 0014743 271.1407  88.8126 14.96039146765909
SL-16 R/B               
1 22803U 93059B   25336.85063934  .00000278  00000+0  16117-3 0  9993
2 22803  70.9894 215.3391 0017367 350.2013   9.8769 14.17209573665810
ARIANE 40 R/B           
1 22830U 93061H   25336.77171009  .00000366  00000+0  15016-3 0  9995
2 22830  98.5090  42.4825 0010318 206.0440 154.0226 14.32790589680228
COSMOS 2278             
1 23087U 94023A   25336.56366715 -.00000001  00000+0  24291-4 0  9999
2 23087  71.0553  18.3008 0008899 194.7694 165.3170 14.14350843631070
SL-16 R/B               
1 23088U 94023B   25336.86657235  .00000368  00000+0  21448-3 0  9998
2 23088  71.0001 274.2191 0001061  76.0191 284.1050 14.14997371632399
SL-16 R/B               
1 23343U 94074B   25336.67390719  .00000706  00000+0  10161-3 0  9994
2 23343  97.7214   6.3782 0006800 165.4430 309.1146 14.79270816672903
SL-16 R/B               
1 23405U 94077B   25336.81524147 -.00000062  00000+0 -72487-5 0  9994
2 23405  70.9810 196.2920 0004575 291.8715  68.1921 14.15545617602525
ARIANE 40+ R/B          
1 23561U 95021B   25336.80824457  .00000454  00000+0  15906-3 0  9997
2 23561  98.4664  44.5165 0007756  75.8729  37.5915 14.39682800605309
SL-16 R/B               
1 23705U 95058B   25336.53478019  .00000339  00000+0  19776-3 0  9997
2 23705  71.0224  24.2302 0014885 268.0461  91.8957 14.15477720554103
SL-16 R/B               
1 24298U 96051B   25336.57351451  .00000007  00000+0  30704-4 0  9990
2 24298  70.7602  20.8030 0019136 273.9251  85.9681 14.12394791507933
